[{"OBJECT_NAME":"STARLINK-30408","OBJECT_ID":"2023-138S","EPOCH":"2026-03-09T11:48:08.469216","MEAN_MOTION":15.26735277,"ECCENTRICITY":0.00017108,"INCLINATION":43.0015,"RA_OF_ASC_NODE":234.8161,"ARG_OF_PERICENTER":273.2949,"MEAN_ANOMALY":86.7706,"EPHEMERIS_TYPE":0,"CLASSIFICATION_TYPE":"U","NORAD_CAT_ID":57824,"ELEMENT_SET_NO":999,"REV_AT_EPOCH":13870,"BSTAR":-4.4950162e-5,"MEAN_MOTION_DOT":-1.465e-5,"MEAN_MOTION_DDOT":0},{"OBJECT_NAME":"COSMOS 2251 DEB","OBJECT_ID":"1993-036SV","EPOCH":"2026-03-09T21:55:42.811680","MEAN_MOTION":15.15006345,"ECCENTRICITY":0.00579573,"INCLINATION":74.0283,"RA_OF_ASC_NODE":1.8812,"ARG_OF_PERICENTER":55.6817,"MEAN_ANOMALY":304.9843,"EPHEMERIS_TYPE":0,"CLASSIFICATION_TYPE":"U","NORAD_CAT_ID":34452,"ELEMENT_SET_NO":999,"REV_AT_EPOCH":91981,"BSTAR":0.0011020825,"MEAN_MOTION_DOT":0.00021495,"MEAN_MOTION_DDOT":0}]
